GLOBALSTAR M067         
1 32263U 07048A   25271.95830271 -.00000069  00000+0  21325-3 0  9998
2 32263  51.9712  92.2860 0001076 154.4523   2.2692 12.40678859822360
GLOBALSTAR M070         
1 32264U 07048B   25271.94517275 -.00000070  00000+0  18698-3 0  9995
2 32264  51.9742 172.4131 0000851  56.6386  24.0459 12.62323087826772
GLOBALSTAR M066         
1 32265U 07048C   25271.91892958 -.00000101  00000+0 -53894-4 0  9991
2 32265  51.9581  87.9327 0004272 206.6939 303.7374 12.30377686828069
GLOBALSTAR M068         
1 32266U 07048D   25272.22659912 -.00000048  00000+0  30951-3 0  9995
2 32266  51.9913 345.1094 0001021  33.2708   4.4913 12.62829182830702
GLOBALSTAR M079         
1 37188U 10054A   25272.07582184 -.00000082  00000+0  12049-3 0  9999
2 37188  52.0031 183.5332 0000702  89.5479  14.7298 12.62267128689579
GLOBALSTAR M074         
1 37189U 10054B   25271.77144696 -.00000071  00000+0  18550-3 0  9999
2 37189  52.0011 183.7669 0000565  66.9709 332.7610 12.62271693690143
GLOBALSTAR M076         
1 37190U 10054C   25272.22140512 -.00000091  00000+0  74060-4 0  9996
2 37190  52.0022 182.5779 0000443  91.8133  73.1905 12.62265601689917
GLOBALSTAR M077         
1 37191U 10054D   25261.11398905 -.00000105  00000+0 -68518-5 0  9993
2 37191  52.0064 173.2575 0000611  67.5371  70.5425 12.62323380688888
